KUIPER-00016            
1 63732U 25088J   26011.98487615  .00002679  00000+0  37981-3 0  9996
2 63732  51.9018   2.3439 0011320 238.7915 121.1938 14.79982062 38936
KUIPER-00018            
1 63733U 25088K   26011.65976589  .00002886  00000+0  40655-3 0  9996
2 63733  51.9036 352.7418 0010875 265.8447  94.1272 14.80019022 39043
KUIPER-00019            
1 63734U 25088L   26011.66083376  .00002116  00000+0  30618-3 0  9995
2 63734  51.9034 351.2772 0002249 318.4998  41.5794 14.79972863 39067
KUIPER-00020            
1 63735U 25088M   26011.25192677  .00002238  00000+0  32250-3 0  9995
2 63735  51.9041 357.0724 0007804 255.2390 104.7708 14.79949732 39159
KUIPER-00021            
1 63736U 25088N   26011.38540117  .00005511  00000+0  75214-3 0  9990
2 63736  51.9030 357.4813 0005554 249.1725 110.8643 14.79885705 38991
KUIPER-00023            
1 63737U 25088P   26011.99183183  .00005325  00000+0  72514-3 0  9997
2 63737  51.9012 356.2608 0010243 271.3054  88.6735 14.80023853 39360
KUIPER-00024            
1 63738U 25088Q   26011.93796971  .00004069  00000+0  56190-3 0  9993
2 63738  51.9061 344.0526 0000775 102.5712 257.5337 14.79974941 39652
KUIPER-00025            
1 63739U 25088R   26011.25300212  .00007824  00000+0  10513-2 0  9998
2 63739  51.9032 355.5944 0000783 123.9059 236.1978 14.80045200 39295
